STARLINK-30282
1 57883U 23144V   26112.18287154  .00000152  00000+0  15063-4 0  9999
2 57883  43.0068  39.1906 0001777 270.9367  89.1281 15.27566709144295
STARLINK-30340
1 57884U 23144W   26112.19060360 -.00001609  00000+0 -48998-4 0  9992
2 57884  43.0084  39.2327 0001887 229.6419 130.4269 15.27548065144294
STARLINK-30279
1 57885U 23144X   26112.18671697  .00004433  00000+0  17054-3 0  9997
2 57885  43.0057  39.2150 0001056 272.5229  87.5502 15.27577303144236
YAOGAN-39 02A
1 57886U 23145A   26112.21898722  .00007964  00000+0  33132-3 0  9990
2 57886  35.0020 192.4254 0003234 182.5706 177.4993 15.23044761144635
YAOGAN-39 02B
1 57889U 23145D   26111.96946565  .00005228  00000+0  25798-3 0  9993
2 57889  34.9899 214.8359 0004097 268.3019  91.7225 15.17277684144342
YAOGAN-39 02C
1 57890U 23145E   26111.97269485  .00005107  00000+0  25168-3 0  9992
2 57890  34.9933 214.9358 0006636 272.3417  87.6536 15.17319674144313
STARLINK-30465
1 57891U 23146A   26112.14396605  .00001577  00000+0  68461-4 0  9990
2 57891  43.0055  68.6617 0001580 260.8254  99.2418 15.26744525143703
STARLINK-30470
1 57892U 23146B   26112.19847808  .00003662  00000+0  14255-3 0  9990
2 57892  43.0047  68.2092 0001324 272.9810  87.0890 15.27578392143714
STARLINK-30473
1 57893U 23146C   26112.16648980  .00008566  00000+0  32044-3 0  9992
2 57893  43.0021  68.7577 0000799 242.4982 117.5789 15.27579080143707
STARLINK-30443
1 57894U 23146D   26112.14850911  .00001713  00000+0  71777-4 0  9994
2 57894  43.0040  68.6894 0001272 266.9094  93.1612 15.27577152143704
STARLINK-30467
1 57895U 23146E   26111.61385375  .00001771  00000+0  73871-4 0  9994
2 57895  43.0027  71.5584 0000623 232.2389 127.8407 15.27577756143618
STARLINK-30469
1 57896U 23146F   26112.15236516  .00002928  00000+0  11588-3 0  9998
2 57896  43.0021  68.7157 0001092 259.0599 101.0130 15.27582809143700
STARLINK-30474
1 57897U 23146G   26111.29785683  .00001208  00000+0  54715-4 0  9997
2 57897  43.0033  73.4895 0001320 267.9916  92.0784 15.26742686143570
STARLINK-30479
1 57898U 23146H   26111.89723510  .00002341  00000+0  94568-4 0  9994
2 57898  43.0003  70.2371 0001748 273.6471  86.4181 15.27576402143666
STARLINK-30481
1 57899U 23146J   26112.15351426 -.00004755  00000+0 -16759-3 0  9996
2 57899  43.0080  68.7276 0002700 267.5534  92.5008 15.26755076143705
STARLINK-30457
1 57900U 23146K   26111.98447453 -.00000234  00000+0  10141-5 0  9993
2 57900  43.0001  70.0278 0000963 263.4894  96.5848 15.27571611142619
STARLINK-30472
1 57901U 23146L   26112.20796120  .00002361  00000+0  95295-4 0  9992
2 57901  43.0039  64.8589 0001155 262.3306  97.7415 15.27579556142694
STARLINK-30462
1 57902U 23146M   26111.58187230  .00000077  00000+0  12331-4 0  9991
2 57902  43.0027  72.1660 0001190 294.1641  65.9086 15.27582956143575
STARLINK-30449
1 57903U 23146N   26112.14197670  .00054775  00000+0  20079-2 0  9994
2 57903  43.0057  68.6364 0002296 270.0717  89.9872 15.27206313142641
STARLINK-30466
1 57904U 23146P   26112.16375139 -.00000226  00000+0  12534-5 0  9998
2 57904  43.0007  68.7957 0001994 271.6126  88.4497 15.26736482142642
STARLINK-30428
1 57906U 23146R   26111.58584979  .00004749  00000+0  18662-3 0  9998
2 57906  43.0031  72.1961 0000847 259.1596 100.9160 15.26739396142557
STARLINK-30482
1 57907U 23146S   26111.27293001 -.00001292  00000+0 -37458-4 0  9995
2 57907  43.0049  74.1511 0001147 264.2649  95.8072 15.27571309142519
STARLINK-30464
1 57908U 23146T   26111.92372435 -.00001002  00000+0 -26897-4 0  9991
2 57908  43.0015  73.8329 0000930 263.4969  96.5777 15.27587901142561
STARLINK-30463
1 57909U 23146U   26111.60420696  .00001835  00000+0  78072-4 0  9994
2 57909  43.0061  72.3371 0001144 272.8982  87.1739 15.26742713142557
STARLINK-30453
1 57910U 23146V   26111.85289866  .00001699  00000+0  71262-4 0  9997
2 57910  43.0062  67.3606 0001292 265.4571  94.6133 15.27583885142635
STARLINK-30478
1 57911U 23146W   26111.93703765  .00026208  00000+0  98675-3 0  9995
2 57911  43.0061  69.6773 0002230 246.8019 113.2598 15.26621162143676
STARLINK-30477
1 57912U 23146X   26112.20410764  .00002647  00000+0  10571-3 0  9991
2 57912  43.0036  64.8332 0001348 261.5546  98.5153 15.27575539143753
STARLINK-30450
1 57913U 23147A   26111.92532117  .00000366  00000+0  22834-4 0  9990
2 57913  43.0042  80.7516 0001357 263.0559  97.0138 15.27588680143212
STARLINK-30483
1 57914U 23147B   26111.87424868  .00001919  00000+0  79258-4 0  9995
2 57914  42.9998 295.7425 0001376 278.6657  81.4038 15.27577642144910
STARLINK-30454
1 57915U 23147C   26111.93304214  .00001458  00000+0  62504-4 0  9999
2 57915  43.0040  80.8067 0001061 271.0363  89.0367 15.27573892143212
STARLINK-30501
1 57917U 23147E   26111.60866044 -.00144734  00000+0 -54143-2 0  9994
2 57917  43.0028  82.6684 0001081 262.7095  97.3633 15.27210385143185
STARLINK-30499
1 57918U 23147F   26111.85640072  .00002330  00000+0  94206-4 0  9992
2 57918  43.0027 296.4378 0001267 265.0746  94.9961 15.27572508144934
STARLINK-30496
1 57919U 23147G   26111.94717574  .00001073  00000+0  48498-4 0  9990
2 57919  43.0025  80.9120 0000680 272.6634  87.4140 15.27571730143247
STARLINK-30485
1 57920U 23147H   26111.62409229  .00000927  00000+0  43188-4 0  9990
2 57920  43.0055  82.7905 0000938 265.4748  94.5996 15.27579299143195
STARLINK-30492
1 57921U 23147J   26111.89205208  .00001070  00000+0  48393-4 0  9994
2 57921  43.0043  81.3573 0000502 240.4013 119.6789 15.27584975143202
STARLINK-30440
1 57923U 23147L   26111.32285964  .00000997  00000+0  45747-4 0  9998
2 57923  43.0041  84.8203 0001207 250.8489 109.2233 15.27579876143141
STARLINK-30487
1 57924U 23147M   26111.29463233 -.00005723  00000+0 -20370-3 0  9990
2 57924  43.0043  87.9979 0001308 266.5815  93.4887 15.26762284143108
STARLINK-30452
1 57925U 23147N   26111.91390398  .00002514  00000+0  10087-3 0  9998
2 57925  43.0043  81.5159 0001655 267.6908  92.3754 15.27577465143207
STARLINK-30468
1 57926U 23147P   26111.93235677  .00001567  00000+0  68068-4 0  9999
2 57926  43.0016  84.2131 0001063 271.1729  88.9001 15.26739896143171
STARLINK-30448
1 57928U 23147R   26111.95052609  .00046065  00000+0  16852-2 0  9999
2 57928  42.9991  84.3315 0002122 287.1375  72.9245 15.27341276143174
STARLINK-30476
1 57930U 23147T   26112.15416397  .00019726  00000+0  42580-3 0  9995
2 57930  42.9947  21.3503 0019778 185.0089 175.0573 15.43978284143926
STARLINK-30488
1 57931U 23147U   26111.62745574  .00001892  00000+0  78277-4 0  9997
2 57931  43.0022  86.2085 0000578 282.0574  78.0213 15.27575054143151
STARLINK-30471
1 57932U 23147V   26111.98402653  .00001207  00000+0  54675-4 0  9991
2 57932  43.0039  80.3301 0001215 264.6781  95.3932 15.26737807143224
STARLINK-30461
1 57933U 23147W   26111.98300770  .00002021  00000+0  82946-4 0  9996
2 57933  43.0043  80.3222 0001278 265.2944  94.7762 15.27577538143227
STARLINK-30712
1 57935U 23148A   26112.18915412 -.00000784  00000+0 -14339-4 0  9994
2 57935  53.1603 182.1518 0001483  87.7467 272.3704 15.30195266145081
STARLINK-30716
1 57936U 23148B   26112.21869904  .00000170  00000+0  17852-4 0  9993
2 57936  53.1602 182.2380 0000934  81.1469 278.9637 15.30179455145088
STARLINK-30400
1 57937U 23148C   26112.19232392  .00000681  00000+0  35126-4 0  9997
2 57937  53.1599 182.1265 0001569  81.5338 278.5841 15.30191259145088
STARLINK-30710
1 57938U 23148D   26112.17975154  .00001975  00000+0  78808-4 0  9997
2 57938  53.1599 172.2101 0001216  86.3769 273.7371 15.30195181145216
STARLINK-30714
1 57939U 23148E   26112.22501663 -.00002213  00000+0 -62625-4 0  9992
2 57939  53.1560 182.2663 0001164  93.2791 266.8343 15.30201639145086
STARLINK-30711
1 57940U 23148F   26112.22185287  .00003115  00000+0  11724-3 0  9997
2 57940  53.1593 182.2659 0001442  94.4210 265.6956 15.30199797145085
STARLINK-30715
1 57941U 23148G   26111.45281946  .00003245  00000+0  12164-3 0  9994
2 57941  53.1596 175.3546 0001284  79.1882 280.9263 15.30193850145115
STARLINK-30455
1 57942U 23148H   26111.90160405  .00001941  00000+0  77668-4 0  9993
2 57942  53.1592 183.7654 0000950  88.6017 271.5092 15.30187937145035
STARLINK-30456
1 57943U 23148J   26112.21553639  .00002409  00000+0  93432-4 0  9991
2 57943  53.1617 182.3004 0001393  88.1595 271.9566 15.30195952145087
STARLINK-30708
1 57944U 23148K   26112.19548536  .00001863  00000+0  75060-4 0  9999
2 57944  53.1601 182.1747 0001641  89.3879 270.7310 15.30175853145089
STARLINK-30705
1 57945U 23148L   26112.20603836  .00001623  00000+0  66902-4 0  9996
2 57945  53.1604 182.2449 0000806  51.0364 309.0708 15.30191478145088
STARLINK-30704
1 57946U 23148M   26111.83543181  .00001275  00000+0  55193-4 0  9994
2 57946  53.1600 261.0357 0001041  76.6815 283.4302 15.30189194143923
STARLINK-30706
1 57947U 23148N   26112.21236670  .00002140  00000+0  84365-4 0  9995
2 57947  53.1583 182.2731 0001132  80.4014 279.7114 15.30196598145083
STARLINK-30707
1 57949U 23148Q   26112.20920242  .00001976  00000+0  78828-4 0  9994
2 57949  53.1589 182.2556 0000811  28.2127 331.8917 15.30192215145087
STARLINK-30701
1 57950U 23148R   26111.48440075  .00003998  00000+0  14709-3 0  9999
2 57950  53.1616 185.5403 0001222  81.4885 278.6254 15.30187313144978
STARLINK-30399
1 57951U 23148S   26112.19864991  .00000566  00000+0  31232-4 0  9995
2 57951  53.1611 182.1746 0001398  83.9632 276.1528 15.30192307145087
STARLINK-30713
1 57952U 23148T   26111.92156409  .00000864  00000+0  41322-4 0  9996
2 57952  53.1605 183.3132 0001272  97.5206 262.5939 15.30183961145049
STARLINK-30700
1 57953U 23148U   26112.15552973 -.00000544  00000+0 -62196-5 0  9999
2 57953  53.1594 172.3141 0001681  94.3976 265.7217 15.30188175145213
STARLINK-30703
1 57954U 23148V   26112.19449756  .00000497  00000+0  28924-4 0  9993
2 57954  53.1613 172.0950 0001300  85.1274 274.9876 15.30195237145229
STARLINK-30702
1 57955U 23148W   26112.13340030  .00005791  00000+0  20743-3 0  9995
2 57955  53.1582 172.4170 0001249  88.8172 271.2971 15.30211625145217
